[
{"_id":"1.0.0.0/24","start":16777216,"end":16777471,"bits":24,"geoname_id":"2078025","postal_code":"5000","latitude":"-34.9281","longitude":"138.5999"},
{"_id":"1.0.1.0/24","start":16777472,"end":16777727,"bits":24,"geoname_id":"1814991","postal_code":"","latitude":"34.7725","longitude":"113.7266"},
{"_id":"1.0.2.0/23","start":16777728,"end":16778239,"bits":23,"geoname_id":"1814991","postal_code":"","latitude":"34.7725","longitude":"113.7266"},
{"_id":"1.0.4.0/22","start":16778240,"end":16779263,"bits":22,"geoname_id":"2077456","postal_code":"","latitude":"-33.4940","longitude":"143.2104"},
{"_id":"1.0.8.0/21","start":16779264,"end":16781311,"bits":21,"geoname_id":"1814991","postal_code":"","latitude":"34.7725","longitude":"113.7266"},
{"_id":"1.0.16.0/20","start":16781312,"end":16785407,"bits":20,"geoname_id":"1861060","postal_code":"","latitude":"35.6900","longitude":"139.6900"},
{"_id":"1.0.32.0/19","start":16785408,"end":16793599,"bits":19,"geoname_id":"1814991","postal_code":"","latitude":"34.7725","longitude":"113.7266"},
{"_id":"1.0.64.0/24","start":16793600,"end":16793855,"bits":24,"geoname_id":"1863018","postal_code":"738-0051","latitude":"34.3830","longitude":"132.5459"},
{"_id":"1.0.65.0/24","start":16793856,"end":16794111,"bits":24,"geoname_id":"1862415","postal_code":"734-0011","latitude":"34.3401","longitude":"132.4439"},
{"_id":"1.0.66.0/23","start":16794112,"end":16794623,"bits":23,"geoname_id":"1863018","postal_code":"738-0041","latitude":"34.3426","longitude":"132.3071"},
{"_id":"1.0.68.0/24","start":16794624,"end":16794879,"bits":24,"geoname_id":"6822110","postal_code":"732-0011","latitude":"34.2982","longitude":"133.0858"},
{"_id":"1.0.69.0/24","start":16794880,"end":16795135,"bits":24,"geoname_id":"1862415","postal_code":"731-5151","latitude":"34.3831","longitude":"132.5851"},
{"_id":"1.0.70.0/24","start":16795136,"end":16795391,"bits":24,"geoname_id":"1862415","postal_code":"731-0111","latitude":"34.4501","longitude":"132.4884"},
{"_id":"1.0.71.0/24","start":16795392,"end":16795647,"bits":24,"geoname_id":"1863018","postal_code":"738-0051","latitude":"34.3830","longitude":"132.5459"},
{"_id":"1.0.72.0/23","start":16795648,"end":16796159,"bits":23,"geoname_id":"1862413","postal_code":"736-0014","latitude":"34.3668","longitude":"132.5529"},
{"_id":"1.0.74.0/24","start":16796160,"end":16796415,"bits":24,"geoname_id":"1862415","postal_code":"735-0001","latitude":"34.2848","longitude":"132.4777"},
{"_id":"1.0.75.0/24","start":16796416,"end":16796671,"bits":24,"geoname_id":"1862415","postal_code":"731-0121","latitude":"34.4593","longitude":"132.4731"},
{"_id":"1.0.76.0/22","start":16796672,"end":16797695,"bits":22,"geoname_id":"1862415","postal_code":"731-0111","latitude":"34.4501","longitude":"132.4884"},
{"_id":"1.0.80.0/23","start":16797696,"end":16798207,"bits":23,"geoname_id":"1857550","postal_code":"690-0121","latitude":"35.4774","longitude":"133.0383"},
{"_id":"1.0.82.0/24","start":16798208,"end":16798463,"bits":24,"geoname_id":"1849892","postal_code":"680-0011","latitude":"35.5000","longitude":"134.2333"},
{"_id":"1.0.83.0/24","start":16798464,"end":16798719,"bits":24,"geoname_id":"1849892","postal_code":"680-0031","latitude":"35.4917","longitude":"134.2333"},
{"_id":"1.0.84.0/23","start":16798720,"end":16799231,"bits":23,"geoname_id":"1849892","postal_code":"680-0001","latitude":"35.5314","longitude":"134.2118"},
{"_id":"1.0.86.0/23","start":16799232,"end":16799743,"bits":23,"geoname_id":"1848277","postal_code":"683-0851","latitude":"35.4611","longitude":"133.6389"},
{"_id":"1.0.88.0/23","start":16799744,"end":16800255,"bits":23,"geoname_id":"1853174","postal_code":"684-0061","latitude":"35.5295","longitude":"133.2102"},
{"_id":"1.0.90.0/23","start":16800256,"end":16800767,"bits":23,"geoname_id":"1857550","postal_code":"690-0121","latitude":"35.4774","longitude":"133.0383"},
{"_id":"1.0.92.0/24","start":16800768,"end":16801023,"bits":24,"geoname_id":"1862415","postal_code":"730-0031","latitude":"34.3926","longitude":"132.4543"},
{"_id":"1.0.93.0/24","start":16801024,"end":16801279,"bits":24,"geoname_id":"1857550","postal_code":"690-0041","latitude":"35.4507","longitude":"133.0787"},
{"_id":"1.0.94.0/23","start":16801280,"end":16801791,"bits":23,"geoname_id":"1862415","postal_code":"730-0031","latitude":"34.3926","longitude":"132.4543"},
{"_id":"1.0.96.0/25","start":16801792,"end":16801919,"bits":25,"geoname_id":"1849892","postal_code":"680-0001","latitude":"35.5314","longitude":"134.2118"},
{"_id":"1.0.96.128/25","start":16801920,"end":16802047,"bits":25,"geoname_id":"1857550","postal_code":"690-2101","latitude":"35.4000","longitude":"133.1167"},
{"_id":"1.0.97.0/24","start":16802048,"end":16802303,"bits":24,"geoname_id":"1853174","postal_code":"684-0061","latitude":"35.5295","longitude":"133.2102"},
{"_id":"1.0.98.0/23","start":16802304,"end":16802815,"bits":23,"geoname_id":"1857550","postal_code":"699-0101","latitude":"35.4326","longitude":"133.1625"},
{"_id":"1.0.100.0/22","start":16802816,"end":16803839,"bits":22,"geoname_id":"1857550","postal_code":"690-0861","latitude":"35.4498","longitude":"133.0435"},
{"_id":"1.0.104.0/23","start":16803840,"end":16804351,"bits":23,"geoname_id":"1857550","postal_code":"690-0121","latitude":"35.4774","longitude":"133.0383"},
{"_id":"1.0.106.0/24","start":16804352,"end":16804607,"bits":24,"geoname_id":"1857550","postal_code":"690-0821","latitude":"35.4498","longitude":"133.0435"},
{"_id":"1.0.107.0/24","start":16804608,"end":16804863,"bits":24,"geoname_id":"1849892","postal_code":"682-0711","latitude":"35.5417","longitude":"134.1000"},
{"_id":"1.0.108.0/23","start":16804864,"end":16805375,"bits":23,"geoname_id":"1849892","postal_code":"680-0941","latitude":"35.5362","longitude":"134.1851"},
{"_id":"1.0.110.0/24","start":16805376,"end":16805631,"bits":24,"geoname_id":"1857550","postal_code":"690-0131","latitude":"35.4774","longitude":"133.0383"},
{"_id":"1.0.111.0/24","start":16805632,"end":16805887,"bits":24,"geoname_id":"1849892","postal_code":"680-0941","latitude":"35.5362","longitude":"134.1851"},
{"_id":"1.0.112.0/23","start":16805888,"end":16806399,"bits":23,"geoname_id":"1849892","postal_code":"680-0901","latitude":"35.5362","longitude":"134.1851"},
{"_id":"1.0.114.0/23","start":16806400,"end":16806911,"bits":23,"geoname_id":"1849892","postal_code":"680-0011","latitude":"35.5000","longitude":"134.2333"},
{"_id":"1.0.116.0/24","start":16806912,"end":16807167,"bits":24,"geoname_id":"1848277","postal_code":"683-0051","latitude":"35.4333","longitude":"133.3500"},
{"_id":"1.0.117.0/25","start":16807168,"end":16807295,"bits":25,"geoname_id":"1858301","postal_code":"689-2111","latitude":"35.4689","longitude":"133.5862"},
{"_id":"1.0.117.128/25","start":16807296,"end":16807423,"bits":25,"geoname_id":"1848277","postal_code":"683-0051","latitude":"35.4333","longitude":"133.3500"},
{"_id":"1.0.118.0/24","start":16807424,"end":16807679,"bits":24,"geoname_id":"1858311","postal_code":"710-0031","latitude":"34.5225","longitude":"133.6378"},
{"_id":"1.0.119.0/25","start":16807680,"end":16807807,"bits":25,"geoname_id":"1858301","postal_code":"682-0861","latitude":"35.4417","longitude":"134.0083"},
{"_id":"1.0.119.128/25","start":16807808,"end":16807935,"bits":25,"geoname_id":"1849892","postal_code":"680-0011","latitude":"35.5000","longitude":"134.2333"},
{"_id":"1.0.120.0/24","start":16807936,"end":16808191,"bits":24,"geoname_id":"1857550","postal_code":"690-0821","latitude":"35.4498","longitude":"133.0435"},
{"_id":"1.0.121.0/24","start":16808192,"end":16808447,"bits":24,"geoname_id":"1861084","postal_code":"699-0631","latitude":"35.3833","longitude":"132.8167"},
{"_id":"1.0.122.0/23","start":16808448,"end":16808959,"bits":23,"geoname_id":"1849892","postal_code":"680-0941","latitude":"35.5362","longitude":"134.1851"},
{"_id":"1.0.124.0/24","start":16808960,"end":16809215,"bits":24,"geoname_id":"1857550","postal_code":"690-0861","latitude":"35.4498","longitude":"133.0435"},
{"_id":"1.0.125.0/24","start":16809216,"end":16809471,"bits":24,"geoname_id":"1848277","postal_code":"683-0801","latitude":"35.4573","longitude":"133.3453"},
{"_id":"1.0.126.0/23","start":16809472,"end":16809983,"bits":23,"geoname_id":"1848277","postal_code":"683-0803","latitude":"35.4333","longitude":"133.3333"},
{"_id":"1.0.128.0/23","start":16809984,"end":16810495,"bits":23,"geoname_id":"1151426","postal_code":"56000","latitude":"19.1695","longitude":"99.9165"},
{"_id":"1.0.130.0/23","start":16810496,"end":16811007,"bits":23,"geoname_id":"1606147","postal_code":"90000","latitude":"7.0206","longitude":"100.6637"},
{"_id":"1.0.132.0/23","start":16811008,"end":16811519,"bits":23,"geoname_id":"1606270","postal_code":"16150","latitude":"14.8879","longitude":"100.4046"},
{"_id":"1.0.134.0/23","start":16811520,"end":16812031,"bits":23,"geoname_id":"1602551","postal_code":"72000","latitude":"14.5833","longitude":"100.0500"},
{"_id":"1.0.136.0/22","start":16812032,"end":16813055,"bits":22,"geoname_id":"1614295","postal_code":"20150","latitude":"13.0508","longitude":"100.9367"},
{"_id":"1.0.140.0/22","start":16813056,"end":16814079,"bits":22,"geoname_id":"1620566","postal_code":"","latitude":"13.4971","longitude":"100.0833"},
{"_id":"1.0.144.0/23","start":16814080,"end":16814591,"bits":23,"geoname_id":"1609350","postal_code":"10200","latitude":"13.7594","longitude":"100.4889"},
{"_id":"1.0.146.0/23","start":16814592,"end":16815103,"bits":23,"geoname_id":"1607779","postal_code":"93000","latitude":"7.4944","longitude":"100.0583"},
{"_id":"1.0.148.0/23","start":16815104,"end":16815615,"bits":23,"geoname_id":"1150007","postal_code":"92140","latitude":"7.5274","longitude":"99.5940"},
{"_id":"1.0.150.0/23","start":16815616,"end":16816127,"bits":23,"geoname_id":"1151254","postal_code":"83120","latitude":"7.9167","longitude":"98.3500"},
{"_id":"1.0.152.0/22","start":16816128,"end":16817151,"bits":22,"geoname_id":"1153783","postal_code":"84110","latitude":"9.3833","longitude":"99.2333"},
{"_id":"1.0.156.0/23","start":16817152,"end":16817663,"bits":23,"geoname_id":"1117578","postal_code":"83110","latitude":"7.9957","longitude":"98.3101"},
{"_id":"1.0.158.0/24","start":16817664,"end":16817919,"bits":24,"geoname_id":"1152633","postal_code":"80240","latitude":"8.3000","longitude":"99.3667"},
{"_id":"1.0.159.0/24","start":16817920,"end":16818175,"bits":24,"geoname_id":"1609350","postal_code":"10200","latitude":"13.7594","longitude":"100.4889"},
{"_id":"1.0.160.0/23","start":16818176,"end":16818687,"bits":23,"geoname_id":"1150515","postal_code":"84150","latitude":"9.1401","longitude":"99.3331"},
{"_id":"1.0.162.0/23","start":16818688,"end":16819199,"bits":23,"geoname_id":"1149878","postal_code":"84190","latitude":"8.6358","longitude":"99.3467"},
{"_id":"1.0.164.0/22","start":16819200,"end":16820223,"bits":22,"geoname_id":"1150515","postal_code":"84150","latitude":"9.1401","longitude":"99.3331"},
{"_id":"1.0.168.0/23","start":16820224,"end":16820735,"bits":23,"geoname_id":"1151254","postal_code":"83110","latitude":"7.9833","longitude":"98.3662"},
{"_id":"1.0.170.0/23","start":16820736,"end":16821247,"bits":23,"geoname_id":"1152633","postal_code":"81000","latitude":"8.1190","longitude":"99.0214"},
{"_id":"1.0.172.0/23","start":16821248,"end":16821759,"bits":23,"geoname_id":"1151464","postal_code":"82180","latitude":"8.5186","longitude":"98.6312"},
{"_id":"1.0.174.0/23","start":16821760,"end":16822271,"bits":23,"geoname_id":"1151254","postal_code":"83120","latitude":"7.9167","longitude":"98.3500"},
{"_id":"1.0.176.0/23","start":16822272,"end":16822783,"bits":23,"geoname_id":"1607017","postal_code":"21000","latitude":"12.6660","longitude":"101.2802"},
{"_id":"1.0.178.0/23","start":16822784,"end":16823295,"bits":23,"geoname_id":"1611269","postal_code":"22000","latitude":"12.6528","longitude":"102.1222"},
{"_id":"1.0.180.0/23","start":16823296,"end":16823807,"bits":23,"geoname_id":"1611269","postal_code":"22000","latitude":"12.6528","longitude":"102.1222"},
{"_id":"1.0.182.0/23","start":16823808,"end":16824319,"bits":23,"geoname_id":"1616508","postal_code":"","latitude":"12.6631","longitude":"101.3722"},
{"_id":"1.0.184.0/24","start":16824320,"end":16824575,"bits":24,"geoname_id":"1611269","postal_code":"22000","latitude":"12.6528","longitude":"102.1222"},
{"_id":"1.0.185.0/24","start":16824576,"end":16824831,"bits":24,"geoname_id":"1611439","postal_code":"24130","latitude":"13.5500","longitude":"101.0000"},
{"_id":"1.0.186.0/23","start":16824832,"end":16825343,"bits":23,"geoname_id":"1609350","postal_code":"10200","latitude":"13.7594","longitude":"100.4889"},
{"_id":"1.0.188.0/23","start":16825344,"end":16825855,"bits":23,"geoname_id":"1609350","postal_code":"10150","latitude":"13.6984","longitude":"100.4638"},
{"_id":"1.0.190.0/24","start":16825856,"end":16826111,"bits":24,"geoname_id":"1607017","postal_code":"21000","latitude":"12.6660","longitude":"101.2802"},
{"_id":"1.0.191.0/24","start":16826112,"end":16826367,"bits":24,"geoname_id":"1609350","postal_code":"10150","latitude":"13.6984","longitude":"100.4638"},
{"_id":"1.0.192.0/22","start":16826368,"end":16827391,"bits":22,"geoname_id":"1157190","postal_code":"","latitude":"8.6175","longitude":"98.2498"},
{"_id":"1.0.196.0/23","start":16827392,"end":16827903,"bits":23,"geoname_id":"7091861","postal_code":"","latitude":"7.8602","longitude":"98.3378"},
{"_id":"1.0.198.0/24","start":16827904,"end":16828159,"bits":24,"geoname_id":"1151254","postal_code":"83120","latitude":"7.9167","longitude":"98.3500"},
{"_id":"1.0.199.0/24","start":16828160,"end":16828415,"bits":24,"geoname_id":"7091861","postal_code":"","latitude":"7.8602","longitude":"98.3378"},
{"_id":"1.0.200.0/23","start":16828416,"end":16828927,"bits":23,"geoname_id":"7026817","postal_code":"10230","latitude":"13.8261","longitude":"100.6793"},
{"_id":"1.0.202.0/23","start":16828928,"end":16829439,"bits":23,"geoname_id":"1150965","postal_code":"85000","latitude":"9.9667","longitude":"98.6333"},
{"_id":"1.0.204.0/22","start":16829440,"end":16830463,"bits":22,"geoname_id":"1605912","postal_code":"60140","latitude":"15.6454","longitude":"100.2218"},
{"_id":"1.0.208.0/23","start":16830464,"end":16830975,"bits":23,"geoname_id":"1606586","postal_code":"75000","latitude":"13.4000","longitude":"100.0000"},
{"_id":"1.0.210.0/23","start":16830976,"end":16831487,"bits":23,"geoname_id":"1609032","postal_code":"15000","latitude":"14.8025","longitude":"100.6181"},
{"_id":"1.0.212.0/23","start":16831488,"end":16831999,"bits":23,"geoname_id":"1606586","postal_code":"75000","latitude":"13.4000","longitude":"100.0000"},
{"_id":"1.0.214.0/24","start":16832000,"end":16832255,"bits":24,"geoname_id":"1606147","postal_code":"90110","latitude":"7.1000","longitude":"100.4167"},
{"_id":"1.0.215.0/24","start":16832256,"end":16832511,"bits":24,"geoname_id":"1609350","postal_code":"10170","latitude":"13.7653","longitude":"100.4536"},
{"_id":"1.0.216.0/22","start":16832512,"end":16833535,"bits":22,"geoname_id":"1605651","postal_code":"","latitude":"13.7442","longitude":"100.4608"},
{"_id":"1.0.220.0/22","start":16833536,"end":16834559,"bits":22,"geoname_id":"1153557","postal_code":"86000","latitude":"10.1905","longitude":"99.0905"},
{"_id":"1.0.224.0/20","start":16834560,"end":16838655,"bits":20,"geoname_id":"1605239","postal_code":"41260","latitude":"17.1350","longitude":"102.9720"},
{}]